{"type": "FeatureCollection", "features": [ {"type": "Feature", "properties": {"norad_id": 31168, "name": "FENGYUN 1C DEB", "group": "fengyun-1c-debris", "lat": -47.80498405782131, "lon": -63.14782754044033, "alt_km": 751.5789917960765, "timestamp": "2025-12-20T20:38:44.723399+00:00", "meta": {"OBJECT_NAME": "FENGYUN 1C DEB", "OBJECT_ID": "1999-025BHW", "EPOCH": "2025-12-19T14:09:11.772576", "MEAN_MOTION": 14.67393332, "ECCENTRICITY": 0.0108591, "INCLINATION": 98.8912, "RA_OF_ASC_NODE": 125.4175, "ARG_OF_PERICENTER": 42.5825, "MEAN_ANOMALY": 318.3733, "EPHEMERIS_TYPE": 0, "CLASSIFICATION_TYPE": "U", "NORAD_CAT_ID": 31168, "ELEMENT_SET_NO": 999, "REV_AT_EPOCH": 99221, "BSTAR": 0.00038457, "MEAN_MOTION_DOT": 2.313e-05, "MEAN_MOTION_DDOT": 0}, "tle": {"line1": "1 31168U 99025BHW 25353.58971959  .00002313  00000+0  38457-3 0  9993", "line2": "2 31168  98.8912 125.4175 0108591  42.5825 318.3733 14.67393332992215"}}, "geometry": {"type": "Point", "coordinates": [-63.14782754044033, -47.80498405782131]}}, {"type": "Feature", "properties": {"norad_id": 31169, "name": "FENGYUN 1C DEB", "group": "fengyun-1c-debris", "lat": -26.411114059108066, "lon": 26.254159047814507, "alt_km": 770.4866199470653, "timestamp": "2025-12-20T20:38:44.723409+00:00", "meta": {"OBJECT_NAME": "FENGYUN 1C DEB", "OBJECT_ID": "1999-025BHX", "EPOCH": "2025-12-20T00:34:09.920352", "MEAN_MOTION": 14.26515357, "ECCENTRICITY": 0.00572465, "INCLINATION": 99.1561, "RA_OF_ASC_NODE": 20.7855, "ARG_OF_PERICENTER": 356.2914, "MEAN_ANOMALY": 3.7833, "EPHEMERIS_TYPE": 0, "CLASSIFICATION_TYPE": "U", "NORAD_CAT_ID": 31169, "ELEMENT_SET_NO": 999, "REV_AT_EPOCH": 57208, "BSTAR": 0.0014006304, "MEAN_MOTION_DOT": 3.388e-05, "MEAN_MOTION_DDOT": 0}, "tle": {"line1": "1 31169U 99025BHX 25354.02372593  .00003388  00000+0  14006-2 0  9999", "line2": "2 31169  99.1561  20.7855 0057246 356.2914   3.7833 14.26515357572089"}}, "geometry": {"type": "Point", "coordinates": [26.254159047814507, -26.411114059108066]}}, {"type": "Feature", "properties": {"norad_id": 31171, "name": "FENGYUN 1C DEB", "group": "fengyun-1c-debris", "lat": -45.81092906416959, "lon": -7.7115192919831275, "alt_km": 679.4507748551705, "timestamp": "2025-12-20T20:38:44.723420+00:00", "meta": {"OBJECT_NAME": "FENGYUN 1C DEB", "OBJECT_ID": "1999-025BHZ", "EPOCH": "2025-12-19T18:40:13.253952", "MEAN_MOTION": 14.34993799, "ECCENTRICITY": 0.01535475, "INCLINATION": 98.0148, "RA_OF_ASC_NODE": 342.9492, "ARG_OF_PERICENTER": 295.3032, "MEAN_ANOMALY": 189.7876, "EPHEMERIS_TYPE": 0, "CLASSIFICATION_TYPE": "U", "NORAD_CAT_ID": 31171, "ELEMENT_SET_NO": 999, "REV_AT_EPOCH": 95931, "BSTAR": 0.0026486556, "MEAN_MOTION_DOT": 8.582e-05, "MEAN_MOTION_DDOT": 0}, "tle": {"line1": "1 31171U 99025BHZ 25353.77793118  .00008582  00000+0  26487-2 0  9990", "line2": "2 31171  98.0148 342.9492 0153547 295.3032 189.7876 14.34993799959318"}}, "geometry": {"type": "Point", "coordinates": [-7.7115192919831275, -45.81092906416959]}}, {"type": "Feature", "properties": {"norad_id": 31172, "name": "FENGYUN 1C DEB", "group": "fengyun-1c-debris", "lat": 67.95939655975158, "lon": -159.42981936061045, "alt_km": 852.8010738571884, "timestamp": "2025-12-20T20:38:44.723430+00:00", "meta": {"OBJECT_NAME": "FENGYUN 1C DEB", "OBJECT_ID": "1999-025BJA", "EPOCH": "2025-12-20T06:41:55.840128", "MEAN_MOTION": 14.31520313, "ECCENTRICITY": 0.01481205, "INCLINATION": 98.4247, "RA_OF_ASC_NODE": 358.5328, "ARG_OF_PERICENTER": 246.0251, "MEAN_ANOMALY": 112.5364, "EPHEMERIS_TYPE": 0, "CLASSIFICATION_TYPE": "U", "NORAD_CAT_ID": 31172, "ELEMENT_SET_NO": 999, "REV_AT_EPOCH": 97734, "BSTAR": 0.00010847081, "MEAN_MOTION_DOT": 2.79e-06, "MEAN_MOTION_DDOT": 0}, "tle": {"line1": "1 31172U 99025BJA 25354.27911852  .00000279  00000+0  10847-3 0  9993", "line2": "2 31172  98.4247 358.5328 0148120 246.0251 112.5364 14.31520313977345"}}, "geometry": {"type": "Point", "coordinates": [-159.42981936061045, 67.95939655975158]}}, {"type": "Feature", "properties": {"norad_id": 31175, "name": "FENGYUN 1C DEB", "group": "fengyun-1c-debris", "lat": 47.7772391480763, "lon": -175.4925504810276, "alt_km": 635.8466290340566, "timestamp": "2025-12-20T20:38:44.723440+00:00", "meta": {"OBJECT_NAME": "FENGYUN 1C DEB", "OBJECT_ID": "1999-025BJD", "EPOCH": "2025-12-19T17:44:11.172480", "MEAN_MOTION": 14.6030748, "ECCENTRICITY": 0.00743604, "INCLINATION": 98.3966, "RA_OF_ASC_NODE": 354.0042, "ARG_OF_PERICENTER": 143.5954, "MEAN_ANOMALY": 217.0335, "EPHEMERIS_TYPE": 0, "CLASSIFICATION_TYPE": "U", "NORAD_CAT_ID": 31175, "ELEMENT_SET_NO": 999, "REV_AT_EPOCH": 65741, "BSTAR": 0.0024269531, "MEAN_MOTION_DOT": 0.00012157, "MEAN_MOTION_DDOT": 0}, "tle": {"line1": "1 31175U 99025BJD 25353.73901820  .00012157  00000+0  24270-2 0  9992", "line2": "2 31175  98.3966 354.0042 0074360 143.5954 217.0335 14.60307480657416"}}, "geometry": {"type": "Point", "coordinates": [-175.4925504810276, 47.7772391480763]}}, {"type": "Feature", "properties": {"norad_id": 31177, "name": "FENGYUN 1C DEB", "group": "fengyun-1c-debris", "lat": 41.24119574400423, "lon": 95.26121311559606, "alt_km": 1229.1237833631212, "timestamp": "2025-12-20T20:38:44.723451+00:00", "meta": {"OBJECT_NAME": "FENGYUN 1C DEB", "OBJECT_ID": "1999-025BJF", "EPOCH": "2025-12-19T17:38:35.721888", "MEAN_MOTION": 13.62390825, "ECCENTRICITY": 0.03085768, "INCLINATION": 98.7594, "RA_OF_ASC_NODE": 266.4801, "ARG_OF_PERICENTER": 295.8584, "MEAN_ANOMALY": 88.4957, "EPHEMERIS_TYPE": 0, "CLASSIFICATION_TYPE": "U", "NORAD_CAT_ID": 31177, "ELEMENT_SET_NO": 999, "REV_AT_EPOCH": 66307, "BSTAR": 0.0031990454, "MEAN_MOTION_DOT": 3.374e-05, "MEAN_MOTION_DDOT": 0}, "tle": {"line1": "1 31177U 99025BJF 25353.73513567  .00003374  00000+0  31990-2 0  9999", "line2": "2 31177  98.7594 266.4801 0308576 295.8584  88.4957 13.62390825663072"}}, "geometry": {"type": "Point", "coordinates": [95.26121311559606, 41.24119574400423]}}, {"type": "Feature", "properties": {"norad_id": 31178, "name": "FENGYUN 1C DEB", "group": "fengyun-1c-debris", "lat": 17.850504354217726, "lon": -179.17094520463752, "alt_km": 876.5960937217696, "timestamp": "2025-12-20T20:38:44.723461+00:00", "meta": {"OBJECT_NAME": "FENGYUN 1C DEB", "OBJECT_ID": "1999-025BJG", "EPOCH": "2025-12-18T07:05:42.469152", "MEAN_MOTION": 14.22259738, "ECCENTRICITY": 0.01258717, "INCLINATION": 99.5125, "RA_OF_ASC_NODE": 354.9683, "ARG_OF_PERICENTER": 299.9049, "MEAN_ANOMALY": 58.9671, "EPHEMERIS_TYPE": 0, "CLASSIFICATION_TYPE": "U", "NORAD_CAT_ID": 31178, "ELEMENT_SET_NO": 999, "REV_AT_EPOCH": 95894, "BSTAR": 0.0016924306, "MEAN_MOTION_DOT": 4.025e-05, "MEAN_MOTION_DDOT": 0}, "tle": {"line1": "1 31178U 99025BJG 25352.29563043  .00004025  00000+0  16924-2 0  9998", "line2": "2 31178  99.5125 354.9683 0125871 299.9049  58.9671 14.22259738958941"}}, "geometry": {"type": "Point", "coordinates": [-179.17094520463752, 17.850504354217726]}}, {"type": "Feature", "properties": {"norad_id": 31179, "name": "FENGYUN 1C DEB", "group": "fengyun-1c-debris", "lat": -25.162018183275556, "lon": -169.7083788553136, "alt_km": 1033.1703585846426, "timestamp": "2025-12-20T20:38:44.723471+00:00", "meta": {"OBJECT_NAME": "FENGYUN 1C DEB", "OBJECT_ID": "1999-025BJH", "EPOCH": "2025-12-18T07:16:13.358496", "MEAN_MOTION": 13.91941548, "ECCENTRICITY": 0.02152306, "INCLINATION": 99.0195, "RA_OF_ASC_NODE": 12.0814, "ARG_OF_PERICENTER": 345.6132, "MEAN_ANOMALY": 13.8961, "EPHEMERIS_TYPE": 0, "CLASSIFICATION_TYPE": "U", "NORAD_CAT_ID": 31179, "ELEMENT_SET_NO": 999, "REV_AT_EPOCH": 62018, "BSTAR": 0.00082156675, "MEAN_MOTION_DOT": 1.222e-05, "MEAN_MOTION_DDOT": 0}, "tle": {"line1": "1 31179U 99025BJH 25352.30293239  .00001222  00000+0  82157-3 0  9996", "line2": "2 31179  99.0195  12.0814 0215230 345.6132  13.8961 13.91941548620189"}}, "geometry": {"type": "Point", "coordinates": [-169.7083788553136, -25.162018183275556]}}, {"type": "Feature", "properties": {"norad_id": 31180, "name": "FENGYUN 1C DEB", "group": "fengyun-1c-debris", "lat": 45.87658210391447, "lon": 116.46042068590668, "alt_km": 629.9508152189146, "timestamp": "2025-12-20T20:38:44.723481+00:00", "meta": {"OBJECT_NAME": "FENGYUN 1C DEB", "OBJECT_ID": "1999-025BJJ", "EPOCH": "2025-12-19T14:56:31.181568", "MEAN_MOTION": 13.70348103, "ECCENTRICITY": 0.04981204, "INCLINATION": 99.218, "RA_OF_ASC_NODE": 124.9073, "ARG_OF_PERICENTER": 42.0019, "MEAN_ANOMALY": 21.5371, "EPHEMERIS_TYPE": 0, "CLASSIFICATION_TYPE": "U", "NORAD_CAT_ID": 31180, "ELEMENT_SET_NO": 999, "REV_AT_EPOCH": 64161, "BSTAR": 0.00013236074, "MEAN_MOTION_DOT": 2.38e-06, "MEAN_MOTION_DDOT": 0}, "tle": {"line1": "1 31180U 99025BJJ 25353.62258312  .00000238  00000+0  13236-3 0  9995", "line2": "2 31180  99.2180 124.9073 0498120  42.0019  21.5371 13.70348103641617"}}, "geometry": {"type": "Point", "coordinates": [116.46042068590668, 45.87658210391447]}}, {"type": "Feature", "properties": {"norad_id": 31181, "name": "FENGYUN 1C DEB", "group": "fengyun-1c-debris", "lat": 65.45791219650499, "lon": 7.460220765881876, "alt_km": 812.9641836829605, "timestamp": "2025-12-20T20:38:44.723492+00:00", "meta": {"OBJECT_NAME": "FENGYUN 1C DEB", "OBJECT_ID": "1999-025BJK", "EPOCH": "2025-12-16T00:49:27.083136", "MEAN_MOTION": 14.11897653, "ECCENTRICITY": 0.00479368, "INCLINATION": 98.7771, "RA_OF_ASC_NODE": 22.5146, "ARG_OF_PERICENTER": 65.4183, "MEAN_ANOMALY": 325.7974, "EPHEMERIS_TYPE": 0, "CLASSIFICATION_TYPE": "U", "NORAD_CAT_ID": 31181, "ELEMENT_SET_NO": 999, "REV_AT_EPOCH": 95814, "BSTAR": 0.00086139696, "MEAN_MOTION_DOT": 1.548e-05, "MEAN_MOTION_DDOT": 0}, "tle": {"line1": "1 31181U 99025BJK 25350.03434124  .00001548  00000+0  86140-3 0  9994", "line2": "2 31181  98.7771  22.5146 0047936  65.4183 325.7974 14.11897653958140"}}, "geometry": {"type": "Point", "coordinates": [7.460220765881876, 65.45791219650499]}}]}